{
  "type": "FeatureCollection",
  "features": [
    {
      "type": "Feature",
      "properties": {
        "norad_id": 41330,
        "name": "COSMOS 2514 (751)",
        "group": "gnss",
        "lat": -45.20719879334877,
        "lon": 167.03502216316812,
        "alt_km": 19105.553706458657,
        "timestamp": "2025-12-18T10:51:26.047078+00:00",
        "meta_object_name": "COSMOS 2514 (751)",
        "meta_object_id": "2016-008A",
        "meta_epoch": "2025-12-17T05:05:28.456224",
        "meta_mean_motion": 2.13102676,
        "meta_eccentricity": 0.00118978,
        "meta_inclination": 65.1312,
        "meta_ra_of_asc_node": 319.2508,
        "meta_arg_of_pericenter": 220.152,
        "meta_mean_anomaly": 139.7525,
        "meta_ephemeris_type": 0,
        "meta_classification_type": "U",
        "meta_norad_cat_id": 41330,
        "meta_element_set_no": 999,
        "meta_rev_at_epoch": 7674,
        "meta_bstar": 0,
        "meta_mean_motion_dot": -6.8e-07,
        "meta_mean_motion_ddot": 0,
        "tle_line1": "1 41330U 16008A   25351.21213491 -.00000068  00000+0  00000+0 0  9998",
        "tle_line2": "2 41330  65.1312 319.2508 0011897 220.1520 139.7525  2.13102676 76741"
      },
      "geometry": {
        "type": "Point",
        "coordinates": [
          167.03502216316812,
          -45.20719879334877
        ]
      }
    },
    {
      "type": "Feature",
      "properties": {
        "norad_id": 41384,
        "name": "IRNSS-1F",
        "group": "gnss",
        "lat": -0.1488567129326555,
        "lon": -77.4285035890788,
        "alt_km": 35689.22958510945,
        "timestamp": "2025-12-18T10:51:26.047091+00:00",
        "meta_object_name": "IRNSS-1F",
        "meta_object_id": "2016-015A",
        "meta_epoch": "2025-12-17T13:28:51.655008",
        "meta_mean_motion": 1.00275023,
        "meta_eccentricity": 0.00226416,
        "meta_inclination": 4.893,
        "meta_ra_of_asc_node": 101.1789,
        "meta_arg_of_pericenter": 181.3031,
        "meta_mean_anomaly": 38.5632,
        "meta_ephemeris_type": 0,
        "meta_classification_type": "U",
        "meta_norad_cat_id": 41384,
        "meta_element_set_no": 999,
        "meta_rev_at_epoch": 3584,
        "meta_bstar": 0,
        "meta_mean_motion_dot": 1.8e-06,
        "meta_mean_motion_ddot": 0,
        "tle_line1": "1 41384U 16015A   25351.56170897  .00000180  00000+0  00000+0 0  9999",
        "tle_line2": "2 41384   4.8930 101.1789 0022641 181.3031  38.5632  1.00275023 35842"
      },
      "geometry": {
        "type": "Point",
        "coordinates": [
          -77.4285035890788,
          -0.1488567129326555
        ]
      }
    },
    {
      "type": "Feature",
      "properties": {
        "norad_id": 41434,
        "name": "BEIDOU-2 IGSO-6 (C13)",
        "group": "gnss",
        "lat": -45.734018100326466,
        "lon": 3.5345192607603115,
        "alt_km": 35714.35487638896,
        "timestamp": "2025-12-18T10:51:26.047102+00:00",
        "meta_object_name": "BEIDOU-2 IGSO-6 (C13)",
        "meta_object_id": "2016-021A",
        "meta_epoch": "2025-12-11T15:29:12.615360",
        "meta_mean_motion": 1.00293077,
        "meta_eccentricity": 0.00608616,
        "meta_inclination": 59.9644,
        "meta_ra_of_asc_node": 39.9082,
        "meta_arg_of_pericenter": 229.9753,
        "meta_mean_anomaly": 135.9177,
        "meta_ephemeris_type": 0,
        "meta_classification_type": "U",
        "meta_norad_cat_id": 41434,
        "meta_element_set_no": 999,
        "meta_rev_at_epoch": 3560,
        "meta_bstar": 0,
        "meta_mean_motion_dot": -1.62e-06,
        "meta_mean_motion_ddot": 0,
        "tle_line1": "1 41434U 16021A   25345.64528490 -.00000162  00000+0  00000+0 0  9991",
        "tle_line2": "2 41434  59.9644  39.9082 0060861 229.9753 135.9177  1.00293077 35600"
      },
      "geometry": {
        "type": "Point",
        "coordinates": [
          3.5345192607603115,
          -45.734018100326466
        ]
      }
    },
    {
      "type": "Feature",
      "properties": {
        "norad_id": 41469,
        "name": "IRNSS-1G",
        "group": "gnss",
        "lat": -4.6937501416000265,
        "lon": 19.640438659358562,
        "alt_km": 35778.70790427574,
        "timestamp": "2025-12-18T10:51:26.047118+00:00",
        "meta_object_name": "IRNSS-1G",
        "meta_object_id": "2016-027A",
        "meta_epoch": "2025-12-17T19:04:41.996064",
        "meta_mean_motion": 1.00277731,
        "meta_eccentricity": 0.00025915,
        "meta_inclination": 4.7464,
        "meta_ra_of_asc_node": 101.9671,
        "meta_arg_of_pericenter": 331.7744,
        "meta_mean_anomaly": 68.5539,
        "meta_ephemeris_type": 0,
        "meta_classification_type": "U",
        "meta_norad_cat_id": 41469,
        "meta_element_set_no": 999,
        "meta_rev_at_epoch": 3536,
        "meta_bstar": 0,
        "meta_mean_motion_dot": -3.12e-06,
        "meta_mean_motion_ddot": 0,
        "tle_line1": "1 41469U 16027A   25351.79493051 -.00000312  00000+0  00000+0 0  9999",
        "tle_line2": "2 41469   4.7464 101.9671 0002591 331.7744  68.5539  1.00277731 35363"
      },
      "geometry": {
        "type": "Point",
        "coordinates": [
          19.640438659358562,
          -4.6937501416000265
        ]
      }
    },
    {
      "type": "Feature",
      "properties": {
        "norad_id": 41549,
        "name": "GSAT0211 (GALILEO 14)",
        "group": "gnss",
        "lat": -15.26798092786013,
        "lon": 57.63325942248174,
        "alt_km": 23236.528392907512,
        "timestamp": "2025-12-18T10:51:26.047130+00:00",
        "meta_object_name": "GSAT0211 (GALILEO 14)",
        "meta_object_id": "2016-030A",
        "meta_epoch": "2025-12-14T00:32:28.498848",
        "meta_mean_motion": 1.70473201,
        "meta_eccentricity": 0.000407,
        "meta_inclination": 55.1518,
        "meta_ra_of_asc_node": 226.7881,
        "meta_arg_of_pericenter": 16.5595,
        "meta_mean_anomaly": 343.5367,
        "meta_ephemeris_type": 0,
        "meta_classification_type": "U",
        "meta_norad_cat_id": 41549,
        "meta_element_set_no": 999,
        "meta_rev_at_epoch": 5951,
        "meta_bstar": 0,
        "meta_mean_motion_dot": 2.8e-07,
        "meta_mean_motion_ddot": 0,
        "tle_line1": "1 41549U 16030A   25348.02255207  .00000028  00000+0  00000+0 0  9996",
        "tle_line2": "2 41549  55.1518 226.7881 0004070  16.5595 343.5367  1.70473201 59512"
      },
      "geometry": {
        "type": "Point",
        "coordinates": [
          57.63325942248174,
          -15.26798092786013
        ]
      }
    },
    {
      "type": "Feature",
      "properties": {
        "norad_id": 41550,
        "name": "GSAT0210 (GALILEO 13)",
        "group": "gnss",
        "lat": 32.35095862032324,
        "lon": -107.15612614558871,
        "alt_km": 23220.91432620357,
        "timestamp": "2025-12-18T10:51:26.047142+00:00",
        "meta_object_name": "GSAT0210 (GALILEO 13)",
        "meta_object_id": "2016-030B",
        "meta_epoch": "2025-12-17T05:06:34.590240",
        "meta_mean_motion": 1.70473746,
        "meta_eccentricity": 9.221e-05,
        "meta_inclination": 55.1502,
        "meta_ra_of_asc_node": 226.6984,
        "meta_arg_of_pericenter": 234.8094,
        "meta_mean_anomaly": 125.2822,
        "meta_ephemeris_type": 0,
        "meta_classification_type": "U",
        "meta_norad_cat_id": 41550,
        "meta_element_set_no": 999,
        "meta_rev_at_epoch": 5956,
        "meta_bstar": 0,
        "meta_mean_motion_dot": 5.5e-07,
        "meta_mean_motion_ddot": 0,
        "tle_line1": "1 41550U 16030B   25351.21290035  .00000055  00000+0  00000+0 0  9991",
        "tle_line2": "2 41550  55.1502 226.6984 0000922 234.8094 125.2822  1.70473746 59561"
      },
      "geometry": {
        "type": "Point",
        "coordinates": [
          -107.15612614558871,
          32.35095862032324
        ]
      }
    },
    {
      "type": "Feature",
      "properties": {
        "norad_id": 41586,
        "name": "BEIDOU-2 G7 (C03)",
        "group": "gnss",
        "lat": -1.6277372831931405,
        "lon": 0.5711177952339309,
        "alt_km": 35778.94384546906,
        "timestamp": "2025-12-18T10:51:26.047153+00:00",
        "meta_object_name": "BEIDOU-2 G7 (C03)",
        "meta_object_id": "2016-037A",
        "meta_epoch": "2025-12-17T20:42:00.687744",
        "meta_mean_motion": 1.002729,
        "meta_eccentricity": 0.00050936,
        "meta_inclination": 1.7692,
        "meta_ra_of_asc_node": 67.828,
        "meta_arg_of_pericenter": 3.3357,
        "meta_mean_anomaly": 76.5228,
        "meta_ephemeris_type": 0,
        "meta_classification_type": "U",
        "meta_norad_cat_id": 41586,
        "meta_element_set_no": 999,
        "meta_rev_at_epoch": 507,
        "meta_bstar": 0,
        "meta_mean_motion_dot": -3.3e-06,
        "meta_mean_motion_ddot": 0,
        "tle_line1": "1 41586U 16037A   25351.86250796 -.00000330  00000+0  00000+0 0  9995",
        "tle_line2": "2 41586   1.7692  67.8280 0005093   3.3357  76.5228  1.00272900  5073"
      },
      "geometry": {
        "type": "Point",
        "coordinates": [
          0.5711177952339309,
          -1.6277372831931405
        ]
      }
    }
  ]
}